JY1SAT (JO-97)          
1 43803U 18099AX  26068.68634132  .00017774  00000+0  60804-3 0  9996
2 43803  97.4249 131.3625 0004723 256.6795 103.3919 15.30302628398390
STARLINK-30898          
1 58387U 23178P   26068.21598976  .00003240  00000+0  12139-3 0  9998
2 58387  53.1618   3.5166 0000935 101.4769 258.6337 15.30219296129816
